#aV2013  1 29  0  0  0.00000000     288 DD+AD WGS84 FIT  NGA
## 1725 172800.00000000   300.00000000 56321 0.0000000000000
+   31     1  2  3  4  5  6  7  8  9 10 11 12 13 14 15 16 17
+         18 19 20 21 22 23 24 25 26 28 29 30 31 32  0  0  0
+          0  0  0  0  0  0  0  0  0  0  0  0  0  0  0  0  0
+          0  0  0  0  0  0  0  0  0  0  0  0  0  0  0  0  0
+          0  0  0  0  0  0  0  0  0  0  0  0  0  0  0  0  0
++         2  2  2  2  2  2  2  2  2  2  2  2  2  2  2  2  2
++         2  2  2  2  2  2  2  2  2  2  2  2  2  2  2  0  0
++         0  0  0  0  0  0  0  0  0  0  0  0  0  0  0  0  0
++         0  0  0  0  0  0  0  0  0  0  0  0  0  0  0  0  0
++         0  0  0  0  0  0  0  0  0  0  0  0  0  0  0  0  0
%c cc cc ccc ccc cccc cccc cccc cccc ccccc ccccc ccccc ccccc
%c cc cc ccc ccc cccc cccc cccc cccc ccccc ccccc ccccc ccccc
%f  0.0000000  0.000000000  0.00000000000  0.000000000000000
%f  0.0000000  0.000000000  0.00000000000  0.000000000000000
%i    0    0    0    0      0      0      0      0         0
%i    0    0    0    0      0      0      0      0         0
/*      NGA, ST. LOUIS,MO.                                  
/*   EPHEMERIS COMPUTED FROM  1 DAYS OF DATA
/*   EPOCHA SMOOTHER  
/* CCCCCCCCCCCCCCCCCCCCCCCCCCCCCCCCCCCCCCCCCCCCCCCCCCCCCCCCC
*  2013  1 29  7 45  0.00000000                                                 
P  1  13679.168806 -16815.123328  15280.852466    296.456955                    
V  1  -1201.314722  19544.477524  22615.382215      0.024096                    
P  2 -14453.064972  -7193.579435 -20978.150086    416.455835                    
V  2   4417.453801 -26697.073432   5548.773603      0.013102                    
P  3  24005.164046   7426.758975   8449.581428    161.223330                    
V  3   7973.249052   8782.971703 -28440.561984      0.050890                    
P  4  -8290.859436 -19904.152139 -15599.012628    118.832969                    
V  4   5705.865575 -18808.663354  21639.115726      0.110580                    
P  5 -24561.348658   1358.672640 -10226.159590   -381.068438                    
V  5  11150.173167  -7056.282067 -27662.396563     -0.019794                    
P  6  23076.722893  12791.729445   4471.162057    371.030128                    
V  6   2641.277109   5747.850627 -30396.444961     -0.141000                    
P  7   6220.222208 -25576.745103  -2041.594976    174.440874                    
V  7   2038.186310   3090.933304 -32136.148823      0.043764                    
P  8    318.705165 -24407.925867   9799.288968      4.334686                    
V  8   5178.594414 -11466.451751 -29595.868173      0.002388                    
P  9 -14650.974885    736.874870  21594.321087    217.001141                    
V  9   4371.332286 -28346.623456   3785.722793      0.026717                    
P 10 -12078.633756 -11792.271976 -20876.855234    -67.980545                    
V 10  24146.294629  -9203.803366  -8480.417173     -0.013934                    
P 11  14345.123162 -10689.893068  19133.874781   -348.215641                    
V 11   5015.634624  25188.527284  10373.089011     -0.038668                    
P 12 -23115.296412  11661.754523  -5442.954616    114.944318                    
V 12  -7260.050706    105.781790  31361.114312      0.020286                    
P 13   4367.250832 -15607.330349 -21155.685266    148.905526                    
V 13  19140.942848  18348.339686  -9757.875890     -0.029016                    
P 14  12783.126073  21306.012228   9774.977828    220.054345                    
V 14 -10082.805827  -6911.772917  28686.561198      0.003144                    
P 15 -19353.921776   1631.723272  18203.617200   -106.625358                    
V 15 -17165.284558 -15588.370610 -16580.977861     -0.012169                    
P 16  24170.425648    263.919605 -11384.324204   -252.093778                    
V 16 -13149.148753   5826.891988 -27476.058833     -0.002473                    
P 17 -14630.509541 -20803.006960   8287.536240     55.037922                    
V 17   9082.576624   5104.586515  29335.846130     -0.037189                    
P 18  -5176.573920  17524.019624  19551.037557    236.723605                    
V 18 -23327.661683   6791.060181 -12864.738034      0.018422                    
P 19  20142.108975   3164.549629  17158.663009   -343.979354                    
V 19  14393.119286  16412.576181 -19428.869427     -0.033192                    
P 20  21651.850339 -14179.279844  -5967.083376     81.914633                    
V 20   8278.383950    497.537287  29816.183839      0.014965                    
P 21  -2640.990546  26059.861676   2398.922924   -277.423009                    
V 21  -4524.193479   1740.236672 -31251.855306     -0.022994                    
P 22   8197.414394  14016.269313  21212.297676    156.962243                    
V 22 -24911.837313   9463.699430   3269.768916      0.010954                    
P 23  13390.036311  -8348.905319 -21351.879852    119.206777                    
V 23  20505.595333  17889.144141   5471.035730     -0.037648                    
P 24 -14654.222718  13434.769484  17599.077623     -0.143600                    
V 24   1875.513354 -22347.915679  18648.310637     -0.006485                    
P 25 -14407.988935  16468.872560 -15028.698430     66.233747                    
V 25 -18450.325393   5030.186735  23336.049800      0.027354                    
P 26 -21454.189664 -11804.581419  10080.517852   -121.132618                    
V 26  -8344.187459 -10892.851283 -28380.535078      0.138571                    
P 28  -3461.819474 -14646.923247  22462.535794    227.785086                    
V 28  25885.700987  -7893.849785  -1378.206179      0.033616                    
P 29  -4159.200804  15780.671051 -20908.993936    402.633245                    
V 29 -20206.286965 -17393.455990  -9044.792576      0.037169                    
P 30  17139.809272   6707.055526 -19491.551563   -239.520503                    
V 30 -21014.049773  11673.683688 -14749.193423      0.105123                    
P 31   9499.605914  16175.352861 -18502.105052    299.932557                    
V 31  -5868.296225  23239.478963  17400.351309      0.018128                    
P 32  25458.597585  -6484.452510    715.434994   -530.587855                    
V 32    244.646782   3693.693161  31821.336305     -0.035189                    
EOF
